*******************************************************************************
Ephemeris / WWW_USER Tue Mar 27 22:46:47 2018 Pasadena, USA      / Horizons    
*******************************************************************************
Target body name: Hubble Space Telescope (-48)    {source: hst}
Center body name: Earth-Moon Barycenter (3)       {source: DE431mx}
Center-site name: BODY CENTER
*******************************************************************************
Start time      : A.D. 2000-Jan-01 00:00:00.0000 TDB
Stop  time      : A.D. 2010-Jan-01 00:00:00.0000 TDB
Step-size       : 7200 minutes
*******************************************************************************
Center geodetic : 0.00000000,0.00000000,0.0000000 {E-lon(deg),Lat(deg),Alt(km)}
Center cylindric: 0.00000000,0.00000000,0.0000000 {E-lon(deg),Dxy(km),Dz(km)}
Center radii    : (undefined)                                                  
Output units    : AU-D                                                         
Output type     : GEOMETRIC cartesian states
Output format   : 2 (position and velocity)
Reference frame : ICRF/J2000.0                                                 
Coordinate systm: Ecliptic and Mean Equinox of Reference Epoch                 
*******************************************************************************
JDTDB
   X     Y     Z
   VX    VY    VZ
*******************************************************************************
$$SOE
2452594.500000000 = A.D. 2002-Nov-16 00:00:00.0000 TDB 
  -2.289319169136034E-05  4.007531882154451E-05 -2.114491324034569E-06
  -3.820404525833403E-03  5.889743469182936E-04 -2.046552352565156E-03
2452599.500000000 = A.D. 2002-Nov-21 00:00:00.0000 TDB 
   1.756755041256081E-05  5.834544672736444E-06 -2.247007630114639E-06
  -2.704216069255811E-03  2.029672016855048E-03 -2.771351087494821E-03
2452604.500000000 = A.D. 2002-Nov-26 00:00:00.0000 TDB 
   6.297026141902330E-05 -3.274063111204919E-06  5.844583969614675E-07
  -1.041420613649821E-03  2.797910582712769E-03 -3.205189153152552E-03
2452609.500000000 = A.D. 2002-Dec-01 00:00:00.0000 TDB 
   7.249194155610380E-05  1.072412378054478E-05  7.894093405223703E-06
   7.644243932690563E-04  2.785439899837492E-03 -3.295491915101021E-03
2452614.500000000 = A.D. 2002-Dec-06 00:00:00.0000 TDB 
   3.543272580591615E-05  9.720336149286949E-06  1.720634020425032E-05
   2.341923573361666E-03  2.058871152021547E-03 -3.066673047961051E-03
2452619.500000000 = A.D. 2002-Dec-11 00:00:00.0000 TDB 
  -7.067615335190058E-06 -2.467132968519615E-05  2.257844575369080E-05
   3.416552389404652E-03  8.321401009010364E-04 -2.600373021254279E-03
2452624.500000000 = A.D. 2002-Dec-16 00:00:00.0000 TDB 
  -2.112530690483157E-05 -6.343098731125678E-05  2.103867253805831E-05
   3.844378646599399E-03 -6.186024496103520E-04 -2.005623613603902E-03
2452629.500000000 = A.D. 2002-Dec-21 00:00:00.0000 TDB 
  -9.572163951744709E-06 -7.109015042754440E-05  1.400168497546715E-05
   3.624352543299771E-03 -2.028692886154163E-03 -1.387799925514673E-03
2452634.500000000 = A.D. 2002-Dec-26 00:00:00.0000 TDB 
  -3.315087297923925E-06 -3.647785897369786E-05  5.444743951202879E-06
   2.856191473980957E-03 -3.203010260793178E-03 -8.219649977171578E-04
2452639.500000000 = A.D. 2002-Dec-31 00:00:00.0000 TDB 
  -2.871604874714295E-05  8.509089531406898E-06 -1.870788597977059E-06
   1.675663358916088E-03 -4.019410346919855E-03 -3.548992018674272E-04
2452644.500000000 = A.D. 2003-Jan-05 00:00:00.0000 TDB 
  -6.533299417387489E-05  2.116879490941308E-05 -9.387057794563123E-06
   2.234665154390389E-04 -4.374134988150466E-03 -2.715398921831958E-05
2452649.500000000 = A.D. 2003-Jan-10 00:00:00.0000 TDB 
  -7.132012124034859E-05  4.316044365428763E-06 -1.898911009909798E-05
  -1.319660671575243E-03 -4.176630907600666E-03  1.291965778092241E-04
2452654.500000000 = A.D. 2003-Jan-15 00:00:00.0000 TDB 
  -3.807205133609240E-05 -8.491329270687507E-06 -2.918086305965660E-05
  -2.736576321413518E-03 -3.408492757685262E-03  1.104374944412214E-04
2452659.500000000 = A.D. 2003-Jan-20 00:00:00.0000 TDB 
   7.689454584364750E-06  8.090513894424710E-06 -3.641385185622594E-05
  -3.804067224213285E-03 -2.144309312966381E-03 -5.519489401945372E-05
2452664.500000000 = A.D. 2003-Jan-25 00:00:00.0000 TDB 
   2.491010952431364E-05  4.423018847966326E-05 -3.770641890016704E-05
  -4.329020254844568E-03 -5.501618021399355E-04 -3.142817128079451E-04
2452669.500000000 = A.D. 2003-Jan-30 00:00:00.0000 TDB 
   7.289530773639209E-06  5.727355478876344E-05 -3.436106073584424E-05
  -4.189848554166383E-03  1.129629875720422E-03 -5.796748277432901E-04
2452674.500000000 = A.D. 2003-Feb-04 00:00:00.0000 TDB 
  -6.815292596065578E-06  3.026163069659563E-05 -3.044229828816589E-05
  -3.410325101298487E-03  2.627058341078071E-03 -7.467588290273708E-04
2452679.500000000 = A.D. 2003-Feb-09 00:00:00.0000 TDB 
   1.068298433308917E-05 -8.951605440095810E-06 -2.739088779646988E-05
  -2.161527183064835E-03  3.720113187163591E-03 -7.424699010830258E-04
2452684.500000000 = A.D. 2003-Feb-14 00:00:00.0000 TDB 
   4.981842640004390E-05 -2.552260030196288E-05 -2.329020642536999E-05
  -7.206010791752283E-04  4.282836197491684E-03 -5.301341018848699E-04
2452689.500000000 = A.D. 2003-Feb-19 00:00:00.0000 TDB 
   7.364808674845220E-05 -8.639306931756507E-06 -1.507388289496247E-05
   6.526821104893405E-04  4.331613935282421E-03 -1.516699688290397E-04
2452694.500000000 = A.D. 2003-Feb-24 00:00:00.0000 TDB 
   5.325449016604407E-05  9.217375969572971E-06 -2.423994540975803E-06
   1.802305363695970E-03  3.976672260470510E-03  3.074309748226861E-04
2452699.500000000 = A.D. 2003-Mar-01 00:00:00.0000 TDB 
   1.240215176352120E-05 -7.516880143929222E-06  1.019127811513932E-05
   2.689947557550026E-03  3.359276504217864E-03  7.609080660440450E-04
2452704.500000000 = A.D. 2003-Mar-06 00:00:00.0000 TDB 
  -8.447168130680823E-06 -4.655378469078170E-05  1.879461723010791E-05
   3.335441170592874E-03  2.586894709729574E-03  1.148081087665190E-03
2452709.500000000 = A.D. 2003-Mar-11 00:00:00.0000 TDB 
   7.705448329649446E-07 -7.045598735143165E-05  2.323805569720076E-05
   3.777037602500031E-03  1.691663679537335E-03  1.438681160799245E-03
2452714.500000000 = A.D. 2003-Mar-16 00:00:00.0000 TDB 
   1.759480753854299E-05 -5.467701082931178E-05  2.607257272763571E-05
   4.013479900413847E-03  6.439804572769833E-04  1.633793308988866E-03
2452719.500000000 = A.D. 2003-Mar-21 00:00:00.0000 TDB 
   5.848288147622545E-06 -1.244594846360137E-05  2.989019166441862E-05
   3.967995368695198E-03 -5.707894385105403E-04  1.743531293359729E-03
2452724.500000000 = A.D. 2003-Mar-26 00:00:00.0000 TDB 
  -3.544852834527248E-05  8.149529724281693E-06  3.322883292014548E-05
   3.544463931833010E-03 -1.863290270230992E-03  1.754493201808483E-03
2452729.500000000 = A.D. 2003-Mar-31 00:00:00.0000 TDB 
  -6.486625838699783E-05 -7.789774705715802E-06  3.249183389901317E-05
   2.709153787234182E-03 -3.035077862616913E-03  1.626481619306285E-03
2452734.500000000 = A.D. 2003-Apr-05 00:00:00.0000 TDB 
  -5.905385912926193E-05 -3.122943525576016E-05  2.703455411293125E-05
   1.565767374361076E-03 -3.878137375570254E-03  1.314826322220321E-03
2452739.500000000 = A.D. 2003-Apr-10 00:00:00.0000 TDB 
  -3.060225169678443E-05 -2.874765864804808E-05  1.889703444231187E-05
   3.247062371765070E-04 -4.284721148536177E-03  8.333268621624380E-04
2452744.500000000 = A.D. 2003-Apr-15 00:00:00.0000 TDB 
  -1.427638198704190E-05  8.362292929300176E-06  1.096389419634114E-05
  -8.020967585067755E-04 -4.289941900361522E-03  2.648849852861227E-04
2452749.500000000 = A.D. 2003-Apr-20 00:00:00.0000 TDB 
  -3.476830093474189E-05  4.602722675474841E-05  4.116949566676210E-06
  -1.686198573363402E-03 -4.032824400113571E-03 -2.722414739805297E-04
2452754.500000000 = A.D. 2003-Apr-25 00:00:00.0000 TDB 
  -6.296218799111742E-05  4.518174347595246E-05 -4.531296188021634E-06
  -2.340295470523448E-03 -3.647023819083447E-03 -6.685602725270201E-04
2452759.500000000 = A.D. 2003-Apr-30 00:00:00.0000 TDB 
  -5.956876492671145E-05  1.866076739490596E-05 -1.597954604189667E-05
  -2.884528591798134E-03 -3.178647529437333E-03 -8.646148722291895E-04
2452764.500000000 = A.D. 2003-May-05 00:00:00.0000 TDB 
  -2.294370530656617E-05  1.256912687896841E-06 -2.748976979346862E-05
  -3.426336606292999E-03 -2.567868517176373E-03 -8.709504271069569E-04
2452769.500000000 = A.D. 2003-May-10 00:00:00.0000 TDB 
   1.734105235155095E-05  1.497590936564813E-05 -3.508543106994635E-05
  -3.950166454185306E-03 -1.700801853305510E-03 -7.577931481752627E-04
2452774.500000000 = A.D. 2003-May-15 00:00:00.0000 TDB 
   2.399555842824964E-05  4.765642897112265E-05 -3.648531666711140E-05
  -4.300571836570511E-03 -5.567904113911520E-04 -5.878252743197885E-04
2452779.500000000 = A.D. 2003-May-20 00:00:00.0000 TDB 
  -2.885232990264179E-06  5.611290292541835E-05 -3.403935709758919E-05
  -4.298196475834755E-03  7.434386278961846E-04 -3.861655028408781E-04
2452784.500000000 = A.D. 2003-May-25 00:00:00.0000 TDB 
  -1.726840085930113E-05  2.938587152075381E-05 -3.194427740243537E-05
  -3.894630941750085E-03  1.980089306546460E-03 -1.401623202366464E-04
2452789.500000000 = A.D. 2003-May-30 00:00:00.0000 TDB 
   4.159447842319509E-06 -3.796073200153827E-07 -3.012873971557474E-05
  -3.223854566995273E-03  2.944210143092551E-03  1.489224412797384E-04
2452794.500000000 = A.D. 2003-Jun-04 00:00:00.0000 TDB 
   4.555618062792907E-05 -3.575896737449984E-06 -2.555123455340727E-05
  -2.508131037732725E-03  3.561293442964643E-03  4.186183689878955E-04
2452799.500000000 = A.D. 2003-Jun-09 00:00:00.0000 TDB 
   6.932776825077262E-05  2.229539938755735E-05 -1.545381604252367E-05
  -1.899968017538607E-03  3.913177230065477E-03  5.511798007689164E-04
